STARLINK-31240          
1 59041U 24038U   26068.22211088  .00000450  00000+0  25888-4 0  9995
2 59041  43.0041  26.4720 0001188 264.6648  95.4068 15.27580751114726
BLUEBON                 
1 62688U 25009CH  26068.70316231  .00010452  00000+0  37313-3 0  9992
2 62688  97.4017 152.2033 0001193  43.3900 316.7434 15.29047253 63767
